{
  "norad_id": 56786,
  "name": "STARLINK-6341",
  "history": [
    {
      "epoch": "2026-04-15T16:26:00.703104Z",
      "apogee_km": 574.1979199815305,
      "perigee_km": 569.9068730481222,
      "latitude_deg": -1.109424686439334e-06,
      "longitude_deg": 140.8830132032357,
      "height_km": 574.7432733638686,
      "semi_major_axis_km": 6950.1893965148265,
      "eccentricity": 0.0003087,
      "inclination_deg": 70.0006,
      "raan_deg": 231.2292,
      "arg_perigee_deg": 262.9515,
      "mean_anomaly_deg": 97.1293,
      "mean_motion_rev_day": 14.9833113
    },
    {
      "epoch": "2026-04-16T18:04:09.675264Z",
      "apogee_km": 574.2719370905452,
      "perigee_km": 569.8057540921691,
      "latitude_deg": -5.753014648092969e-06,
      "longitude_deg": 112.60110363013874,
      "height_km": 574.7085415244902,
      "semi_major_axis_km": 6950.175845591357,
      "eccentricity": 0.0003213,
      "inclination_deg": 70.0,
      "raan_deg": 228.5375,
      "arg_perigee_deg": 263.7784,
      "mean_anomaly_deg": 96.3009,
      "mean_motion_rev_day": 14.98335512
    },
    {
      "epoch": "2026-04-17T18:06:10.180800Z",
      "apogee_km": 574.4156622195624,
      "perigee_km": 569.6600745676133,
      "latitude_deg": 2.0971731387756422e-05,
      "longitude_deg": 108.58728854906569,
      "height_km": 574.6142292961825,
      "semi_major_axis_km": 6950.1748683935875,
      "eccentricity": 0.00034212,
      "inclination_deg": 70.0001,
      "raan_deg": 226.0128,
      "arg_perigee_deg": 266.42,
      "mean_anomaly_deg": 93.6568,
      "mean_motion_rev_day": 14.98335828
    },
    {
      "epoch": "2026-04-18T14:55:55.221024Z",
      "apogee_km": 574.4180202175057,
      "perigee_km": 569.6932792542166,
      "latitude_deg": -3.201237742953179e-05,
      "longitude_deg": 153.1061781114063,
      "height_km": 574.6332709337859,
      "semi_major_axis_km": 6950.192649735861,
      "eccentricity": 0.0003399,
      "inclination_deg": 70.0002,
      "raan_deg": 223.8248,
      "arg_perigee_deg": 266.3656,
      "mean_anomaly_deg": 93.7114,
      "mean_motion_rev_day": 14.98330078
    },
    {
      "epoch": "2026-04-19T13:21:48.203424Z",
      "apogee_km": 574.2960990674947,
      "perigee_km": 569.8118358552883,
      "latitude_deg": -5.368074129091697e-05,
      "longitude_deg": 173.3565853596555,
      "height_km": 574.5543437634323,
      "semi_major_axis_km": 6950.190967461391,
      "eccentricity": 0.0003226,
      "inclination_deg": 70.0018,
      "raan_deg": 221.4672,
      "arg_perigee_deg": 268.1455,
      "mean_anomaly_deg": 91.9334,
      "mean_motion_rev_day": 14.98330622
    },
    {
      "epoch": "2026-04-20T13:23:49.057152Z",
      "apogee_km": 574.3655138949525,
      "perigee_km": 569.7565595688757,
      "latitude_deg": 5.893260153239926e-05,
      "longitude_deg": 169.34214346222237,
      "height_km": 574.5786145324107,
      "semi_major_axis_km": 6950.198036731914,
      "eccentricity": 0.00033157,
      "inclination_deg": 70.0005,
      "raan_deg": 218.9433,
      "arg_perigee_deg": 267.7673,
      "mean_anomaly_deg": 92.3107,
      "mean_motion_rev_day": 14.98328336
    },
    {
      "epoch": "2026-04-21T13:25:49.525536Z",
      "apogee_km": 574.4339530331172,
      "perigee_km": 569.6495889707348,
      "latitude_deg": -1.232574579808494e-06,
      "longitude_deg": 165.32874837057065,
      "height_km": 574.5749065952406,
      "semi_major_axis_km": 6950.178771001925,
      "eccentricity": 0.00034419,
      "inclination_deg": 70.0002,
      "raan_deg": 216.4189,
      "arg_perigee_deg": 267.4789,
      "mean_anomaly_deg": 92.5976,
      "mean_motion_rev_day": 14.98334566
    },
    {
      "epoch": "2026-04-22T13:27:51.128352Z",
      "apogee_km": 574.5049613381098,
      "perigee_km": 569.634256546562,
      "latitude_deg": 1.7420108971735013e-05,
      "longitude_deg": 161.31034199332026,
      "height_km": 574.5928739821167,
      "semi_major_axis_km": 6950.206608942335,
      "eccentricity": 0.0003504,
      "inclination_deg": 70.0002,
      "raan_deg": 213.8942,
      "arg_perigee_deg": 267.7571,
      "mean_anomaly_deg": 92.3187,
      "mean_motion_rev_day": 14.98325564
    },
    {
      "epoch": "2026-04-23T13:29:51.766080Z",
      "apogee_km": 574.4504112359709,
      "perigee_km": 569.6418575326152,
      "latitude_deg": 1.6242585729661037e-05,
      "longitude_deg": 157.29596109796717,
      "height_km": 574.5494425286488,
      "semi_major_axis_km": 6950.183134384293,
      "eccentricity": 0.00034593,
      "inclination_deg": 70.0007,
      "raan_deg": 211.3695,
      "arg_perigee_deg": 268.204,
      "mean_anomaly_deg": 91.8723,
      "mean_motion_rev_day": 14.98333155
    },
    {
      "epoch": "2026-04-24T16:44:08.879136Z",
      "apogee_km": 574.2018355681184,
      "perigee_km": 569.9316303945752,
      "latitude_deg": -3.437354224210716e-05,
      "longitude_deg": 104.74400848851953,
      "height_km": 574.3951260651783,
      "semi_major_axis_km": 6950.203732981347,
      "eccentricity": 0.0003072,
      "inclination_deg": 70.0023,
      "raan_deg": 208.5075,
      "arg_perigee_deg": 272.6651,
      "mean_anomaly_deg": 87.4156,
      "mean_motion_rev_day": 14.98326494
    },
    {
      "epoch": "2026-04-25T16:46:09.560928Z",
      "apogee_km": 574.4846607817562,
      "perigee_km": 569.6084120126188,
      "latitude_deg": -4.5129475675823604e-06,
      "longitude_deg": 100.730056476939,
      "height_km": 574.4905184961665,
      "semi_major_axis_km": 6950.183536397187,
      "eccentricity": 0.0003508,
      "inclination_deg": 70.0007,
      "raan_deg": 205.9834,
      "arg_perigee_deg": 269.6243,
      "mean_anomaly_deg": 90.4514,
      "mean_motion_rev_day": 14.98333025
    },
    {
      "epoch": "2026-04-26T15:12:02.971008Z",
      "apogee_km": 574.4635153448808,
      "perigee_km": 569.6635678468447,
      "latitude_deg": -3.3476546897517984e-05,
      "longitude_deg": 120.98027524190759,
      "height_km": 574.5176324450892,
      "semi_major_axis_km": 6950.200541595863,
      "eccentricity": 0.00034531,
      "inclination_deg": 70.0008,
      "raan_deg": 203.6274,
      "arg_perigee_deg": 269.3759,
      "mean_anomaly_deg": 90.7004,
      "mean_motion_rev_day": 14.98327526
    },
    {
      "epoch": "2026-04-27T15:14:03.374592Z",
      "apogee_km": 574.4924709570387,
      "perigee_km": 569.6023212159525,
      "latitude_deg": 4.7968632347169185e-06,
      "longitude_deg": 116.96698968888171,
      "height_km": 574.5147493337487,
      "semi_major_axis_km": 6950.184396086495,
      "eccentricity": 0.0003518,
      "inclination_deg": 70.0005,
      "raan_deg": 201.1028,
      "arg_perigee_deg": 269.0776,
      "mean_anomaly_deg": 90.998,
      "mean_motion_rev_day": 14.98332747
    },
    {
      "epoch": "2026-04-28T15:16:04.699200Z",
      "apogee_km": 574.5145658731171,
      "perigee_km": 569.6174528327265,
      "latitude_deg": -3.049079839709333e-05,
      "longitude_deg": 112.9491294276285,
      "height_km": 574.5091458334846,
      "semi_major_axis_km": 6950.203009352921,
      "eccentricity": 0.0003523,
      "inclination_deg": 70.0004,
      "raan_deg": 198.5775,
      "arg_perigee_deg": 269.6454,
      "mean_anomaly_deg": 90.4301,
      "mean_motion_rev_day": 14.98326728
    },
    {
      "epoch": "2026-04-29T15:18:05.424192Z",
      "apogee_km": 574.3864422000188,
      "perigee_km": 569.7256427457369,
      "latitude_deg": -1.0778491591269965e-05,
      "longitude_deg": 108.9334939847703,
      "height_km": 574.5754424871163,
      "semi_major_axis_km": 6950.193042472878,
      "eccentricity": 0.0003353,
      "inclination_deg": 70.0008,
      "raan_deg": 196.0519,
      "arg_perigee_deg": 267.7489,
      "mean_anomaly_deg": 92.3286,
      "mean_motion_rev_day": 14.98329951
    },
    {
      "epoch": "2026-04-30T13:43:57.663552Z",
      "apogee_km": 574.2110443414676,
      "perigee_km": 569.7318384531554,
      "latitude_deg": 2.0766583496313035e-05,
      "longitude_deg": 129.18942549763761,
      "height_km": 574.4117898659639,
      "semi_major_axis_km": 6950.108441397311,
      "eccentricity": 0.00032224,
      "inclination_deg": 70.0002,
      "raan_deg": 193.6967,
      "arg_perigee_deg": 269.6768,
      "mean_anomaly_deg": 90.4022,
      "mean_motion_rev_day": 14.98357309
    },
    {
      "epoch": "2026-05-02T10:35:45.085056Z",
      "apogee_km": 574.0799406414944,
      "perigee_km": 570.0349274808696,
      "latitude_deg": -6.455686688863971e-05,
      "longitude_deg": 169.68483745391686,
      "height_km": 574.8350293696785,
      "semi_major_axis_km": 6950.194434061182,
      "eccentricity": 0.000291,
      "inclination_deg": 70.0016,
      "raan_deg": 188.9822,
      "arg_perigee_deg": 260.0317,
      "mean_anomaly_deg": 100.0513,
      "mean_motion_rev_day": 14.98329501
    },
    {
      "epoch": "2026-05-03T13:50:02.612832Z",
      "apogee_km": 574.4121160261993,
      "perigee_km": 569.7443514752131,
      "latitude_deg": 9.326908004750629e-06,
      "longitude_deg": 117.13239560363618,
      "height_km": 574.6420762101491,
      "semi_major_axis_km": 6950.215233750706,
      "eccentricity": 0.0003358,
      "inclination_deg": 70.0003,
      "raan_deg": 186.1214,
      "arg_perigee_deg": 266.659,
      "mean_anomaly_deg": 93.4185,
      "mean_motion_rev_day": 14.98322775
    }
  ]
}